[
    {
        "Altitude(m)": 703623.4866094192,
        "Argument of Periapsis(deg)": 0.011390121186627068,
        "Eccentricity": 0.0,
        "Inclination(deg)": 45.0,
        "Latitude(deg)": 25.611054574267115,
        "Longitude(deg)": 130.75094509027335,
        "Mean Anomaly(deg)": 142.44231664748082,
        "RAAN(deg)": 79.98924805854179,
        "Satellite Name": "Constellation 1 360",
        "Satellite Number": 360,
        "Semi-Major Axis(m)": 7083131.272910544,
        "Time(s)": 190
    },
    {
        "Altitude(m)": 703618.5541343983,
        "Argument of Periapsis(deg)": 0.011450069192872472,
        "Eccentricity": 0.0,
        "Inclination(deg)": 45.0,
        "Latitude(deg)": 25.573111394671148,
        "Longitude(deg)": 130.7994789128423,
        "Mean Anomaly(deg)": 142.50301778773073,
        "RAAN(deg)": 79.98919146937622,
        "Satellite Name": "Constellation 1 360",
        "Satellite Number": 360,
        "Semi-Major Axis(m)": 7083131.272910544,
        "Time(s)": 191
    },
    {
        "Altitude(m)": 703613.6306263374,
        "Argument of Periapsis(deg)": 0.01151001719911788,
        "Eccentricity": 0.0,
        "Inclination(deg)": 45.0,
        "Latitude(deg)": 25.535149106861518,
        "Longitude(deg)": 130.84797956537346,
        "Mean Anomaly(deg)": 142.56371892798066,
        "RAAN(deg)": 79.98913488021066,
        "Satellite Name": "Constellation 1 360",
        "Satellite Number": 360,
        "Semi-Major Axis(m)": 7083131.272910544,
        "Time(s)": 192
    },
    {
        "Altitude(m)": 703608.7161225769,
        "Argument of Periapsis(deg)": 0.011569965205363285,
        "Eccentricity": 0.0,
        "Inclination(deg)": 45.0,
        "Latitude(deg)": 25.497167754849993,
        "Longitude(deg)": 130.8964469404347,
        "Mean Anomaly(deg)": 142.62442006823053,
        "RAAN(deg)": 79.98907829104508,
        "Satellite Name": "Constellation 1 360",
        "Satellite Number": 360,
        "Semi-Major Axis(m)": 7083131.272910544,
        "Time(s)": 193
    },
    {
        "Altitude(m)": 703603.8106604214,
        "Argument of Periapsis(deg)": 0.01162991321160869,
        "Eccentricity": 0.0,
        "Inclination(deg)": 45.0,
        "Latitude(deg)": 25.459167382583445,
        "Longitude(deg)": 130.944881434884,
        "Mean Anomaly(deg)": 142.6851212084804,
        "RAAN(deg)": 79.98902170187951,
        "Satellite Name": "Constellation 1 360",
        "Satellite Number": 360,
        "Semi-Major Axis(m)": 7083131.272910544,
        "Time(s)": 194
    },
    {
        "Altitude(m)": 703598.9142771524,
        "Argument of Periapsis(deg)": 0.011689861217854095,
        "Eccentricity": 0.0,
        "Inclination(deg)": 45.0,
        "Latitude(deg)": 25.421148033944927,
        "Longitude(deg)": 130.99328294128648,
        "Mean Anomaly(deg)": 142.74582234873031,
        "RAAN(deg)": 79.98896511271396,
        "Satellite Name": "Constellation 1 360",
        "Satellite Number": 360,
        "Semi-Major Axis(m)": 7083131.272910544,
        "Time(s)": 195
    },
    {
        "Altitude(m)": 703594.0270100257,
        "Argument of Periapsis(deg)": 0.0117498092240995,
        "Eccentricity": 0.0,
        "Inclination(deg)": 45.0,
        "Latitude(deg)": 25.383109752753317,
        "Longitude(deg)": 131.04165152030225,
        "Mean Anomaly(deg)": 142.80652348898022,
        "RAAN(deg)": 79.98890852354837,
        "Satellite Name": "Constellation 1 360",
        "Satellite Number": 360,
        "Semi-Major Axis(m)": 7083131.272910544,
        "Time(s)": 196
    },
    {
        "Altitude(m)": 703589.1488962702,
        "Argument of Periapsis(deg)": 0.011809757230344905,
        "Eccentricity": 0.0,
        "Inclination(deg)": 45.0,
        "Latitude(deg)": 25.345052582763554,
        "Longitude(deg)": 131.08998723258918,
        "Mean Anomaly(deg)": 142.86722462923012,
        "RAAN(deg)": 79.98885193438281,
        "Satellite Name": "Constellation 1 360",
        "Satellite Number": 360,
        "Semi-Major Axis(m)": 7083131.272910544,
        "Time(s)": 197
    },
    {
        "Altitude(m)": 703584.2799730699,
        "Argument of Periapsis(deg)": 0.011869705236590313,
        "Eccentricity": 0.0,
        "Inclination(deg)": 45.0,
        "Latitude(deg)": 25.30697656766661,
        "Longitude(deg)": 131.13829013880255,
        "Mean Anomaly(deg)": 142.92792576948003,
        "RAAN(deg)": 79.98879534521723,
        "Satellite Name": "Constellation 1 360",
        "Satellite Number": 360,
        "Semi-Major Axis(m)": 7083131.272910544,
        "Time(s)": 198
    },
    {
        "Altitude(m)": 703579.420277602,
        "Argument of Periapsis(deg)": 0.011929653242835719,
        "Eccentricity": 0.0,
        "Inclination(deg)": 45.0,
        "Latitude(deg)": 25.268881751089598,
        "Longitude(deg)": 131.18656029959467,
        "Mean Anomaly(deg)": 142.9886269097299,
        "RAAN(deg)": 79.98873875605167,
        "Satellite Name": "Constellation 1 360",
        "Satellite Number": 360,
        "Semi-Major Axis(m)": 7083131.272910544,
        "Time(s)": 199
    }
]